NORAD_CAT_ID,OBJECT_NAME,OBJECT_TYPE,EPOCH,MEAN_MOTION,ECCENTRICITY,INCLINATION,RA_OF_ASC_NODE,ARG_OF_PERICENTER,MEAN_ANOMALY,BSTAR,MEAN_MOTION_DOT,MEAN_MOTION_DDOT,TLE_LINE0,TLE_LINE1,TLE_LINE2,SEMIMAJOR_AXIS,PERIOD,APOGEE,PERIGEE,DECAYED
52835.0,STARLINK-4080,PAYLOAD,2024-04-04 00:42:15,15.08840453,0.000128,53.2168,317.463,102.3387,257.7749,0.00012371,1.682e-05,0.0,0 STARLINK-4080,1 52835U 22062F   24095.02934836  .00001682  00000-0  12371-3 0  9994,2 52835  53.2168 317.4630 0001280 102.3387 257.7749 15.08840453 99400,6917.879,95.438,540.629,538.859,0.0
52835.0,STARLINK-4080,PAYLOAD,2024-04-04 21:22:16,15.08836508,0.000118,53.2171,313.5987,95.0977,265.015,0.00027075,4.023e-05,0.0,0 STARLINK-4080,1 52835U 22062F   24095.89046972  .00004023  00000-0  27075-3 0  9993,2 52835  53.2171 313.5987 0001180  95.0977 265.0150 15.08836508 99536,6917.891,95.438,540.572,538.94,0.0
52835.0,STARLINK-4080,PAYLOAD,2024-04-05 14:51:31,15.08838956,0.0001333,53.2186,310.3284,90.1951,269.9194,8.7629e-05,1.107e-05,0.0,0 STARLINK-4080,1 52835U 22062F   24096.61910981  .00001107  00000-0  87629-4 0  9996,2 52835  53.2186 310.3284 0001333  90.1951 269.9194 15.08838956 99647,6917.884,95.438,540.671,538.826,0.0
52835.0,STARLINK-4080,PAYLOAD,2024-04-05 21:13:03,15.08842985,0.0001344,53.2186,309.1394,90.8747,269.2399,0.00010375,1.364e-05,0.0,0 STARLINK-4080,1 52835U 22062F   24096.88406635  .00001364  00000-0  10375-3 0  9999,2 52835  53.2186 309.1394 0001344  90.8747 269.2399 15.08842985 99688,6917.871,95.437,540.666,538.807,0.0
52835.0,STARLINK-4080,PAYLOAD,2024-04-06 00:23:49,15.0884433,0.0001361,53.2186,308.5447,91.4279,268.6869,0.00011164,1.489e-05,0.0,0 STARLINK-4080,1 52835U 22062F   24097.01654500  .00001489  00000-0  11164-3 0  9996,2 52835  53.2186 308.5447 0001361  91.4279 268.6869 15.08844330 99700,6917.867,95.437,540.674,538.791,0.0
52835.0,STARLINK-4080,PAYLOAD,2024-04-06 06:45:22,15.08838326,0.0001301,53.2179,307.3551,95.1504,264.9637,5.1163e-05,5.26e-06,0.0,0 STARLINK-4080,1 52835U 22062F   24097.28150992  .00000526  00000-0  51163-4 0  9996,2 52835  53.2179 307.3551 0001301  95.1504 264.9637 15.08838326 99745,6917.886,95.438,540.651,538.85,0.0
52835.0,STARLINK-4080,PAYLOAD,2024-04-06 21:03:50,15.08842136,0.0001338,53.2178,304.6787,100.9125,259.2018,4.1217e-05,3.68e-06,0.0,0 STARLINK-4080,1 52835U 22062F   24097.87766780  .00000368  00000-0  41217-4 0  9992,2 52835  53.2178 304.6787 0001338 100.9125 259.2018 15.08842136 99833,6917.874,95.437,540.664,538.813,0.0
52835.0,STARLINK-4080,PAYLOAD,2024-04-07 06:36:09,15.08841809,0.0001169,53.2171,302.8924,82.0274,278.0851,3.4477e-05,2.61e-06,0.0,0 STARLINK-4080,1 52835U 22062F   24098.27510827  .00000261  00000-0  34477-4 0  9998,2 52835  53.2171 302.8924 0001169  82.0274 278.0851 15.08841809 99892,6917.875,95.437,540.549,538.931,0.0
52835.0,STARLINK-4080,PAYLOAD,2024-04-07 20:54:38,15.08834488,0.0001283,53.2175,300.2164,82.7679,277.3459,-2.0406e-05,-6.13e-06,0.0,0 STARLINK-4080,1 52835U 22062F   24098.87127602 -.00000613  00000-0 -20406-4 0  9999,2 52835  53.2175 300.2164 0001283  82.7679 277.3459 15.08834488 99988,6917.897,95.438,540.65,538.875,0.0
52835.0,STARLINK-4080,PAYLOAD,2024-04-08 06:26:56,15.08837924,0.0001339,53.2187,298.4327,86.7,273.4145,5.3976e-05,5.71e-06,0.0,0 STARLINK-4080,1 52835U 22062F   24099.26871316  .00000571  00000-0  53976-4 0  9990,2 52835  53.2187 298.4327 0001339  86.7000 273.4145 15.08837924100041,6917.887,95.438,540.678,538.825,0.0
52835.0,STARLINK-4080,PAYLOAD,2024-04-08 19:10:01,15.08845068,0.0001359,53.2195,296.0538,86.3413,273.7734,0.00010824,1.435e-05,0.0,0 STARLINK-4080,1 52835U 22062F   24099.79862768  .00001435  00000-0  10824-3 0  9993,2 52835  53.2195 296.0538 0001359  86.3413 273.7734 15.08845068100128,6917.865,95.437,540.67,538.79,0.0
52835.0,STARLINK-4080,PAYLOAD,2024-04-09 12:39:16,15.0884058,0.0001288,53.2162,292.785,85.2644,274.8496,0.00013603,1.878e-05,0.0,0 STARLINK-4080,1 52835U 22062F   24100.52727019  .00001878  00000-0  13603-3 0  9995,2 52835  53.2162 292.7850 0001288  85.2644 274.8496 15.08840580100230,6917.879,95.438,540.635,538.853,0.0
52835.0,STARLINK-4080,PAYLOAD,2024-04-09 19:00:48,15.08839396,0.0001322,53.2174,291.5953,85.3263,274.788,0.0001239,1.684e-05,0.0,0 STARLINK-4080,1 52835U 22062F   24100.79223207  .00001684  00000-0  12390-3 0  9991,2 52835  53.2174 291.5953 0001322  85.3263 274.7880 15.08839396100274,6917.882,95.438,540.662,538.833,0.0
52835.0,STARLINK-4080,PAYLOAD,2024-04-10 06:08:31,15.08837121,0.0001248,53.2162,289.5133,84.9741,275.1394,5.2668e-05,5.5e-06,0.0,0 STARLINK-4080,1 52835U 22062F   24101.25591570  .00000550  00000-0  52668-4 0  9998,2 52835  53.2162 289.5133 0001248  84.9741 275.1394 15.08837121100348,6917.889,95.438,540.618,538.891,0.0
52835.0,STARLINK-4080,PAYLOAD,2024-04-10 22:02:22,15.08838404,0.0001363,53.2156,286.5395,83.3859,276.7288,1.1248e-05,-1.09e-06,0.0,0 STARLINK-4080,1 52835U 22062F   24101.91831669 -.00000109  00000-0  11248-4 0  9997,2 52835  53.2156 286.5395 0001363  83.3859 276.7288 15.08838404100444,6917.885,95.438,540.693,538.807,0.0
52835.0,STARLINK-4080,PAYLOAD,2024-04-11 18:42:22,15.08848776,0.0001233,53.2174,282.6734,82.905,277.2083,6.6729e-05,7.75e-06,0.0,0 STARLINK-4080,1 52835U 22062F   24102.77942719  .00000775  00000-0  66729-4 0  9993,2 52835  53.2174 282.6734 0001233  82.9050 277.2083 15.08848776100578,6917.854,95.437,540.572,538.866,0.0
52835.0,STARLINK-4080,PAYLOAD,2024-04-11 21:53:08,15.08847661,0.0001253,53.2172,282.0782,81.8066,278.3068,0.00012432,1.692e-05,0.0,0 STARLINK-4080,1 52835U 22062F   24102.91190653  .00001692  00000-0  12432-3 0  9991,2 52835  53.2172 282.0782 0001253  81.8066 278.3068 15.08847661100599,6917.857,95.437,540.589,538.855,0.0
52835.0,STARLINK-4080,PAYLOAD,2024-04-12 12:11:37,15.08835999,0.0001298,53.2176,279.3999,84.1585,275.9555,8.1251e-05,1.005e-05,0.0,0 STARLINK-4080,1 52835U 22062F   24103.50807590  .00001005  00000-0  81251-4 0  9996,2 52835  53.2176 279.3999 0001298  84.1585 275.9555 15.08835999100688,6917.893,95.438,540.656,538.86,0.0
52835.0,STARLINK-4080,PAYLOAD,2024-04-12 15:22:23,15.08837336,0.0001283,53.2176,278.8056,83.0178,277.0961,9.0348e-05,1.15e-05,0.0,0 STARLINK-4080,1 52835U 22062F   24103.64055473  .00001150  00000-0  90348-4 0  9994,2 52835  53.2176 278.8056 0001283  83.0178 277.0961 15.08837336100700,6917.889,95.438,540.641,538.866,0.0
52835.0,STARLINK-4080,PAYLOAD,2024-04-13 12:02:24,15.08837328,0.0001248,53.2169,274.9379,91.3278,268.7858,3.098e-05,2.05e-06,0.0,0 STARLINK-4080,1 52835U 22062F   24104.50167694  .00000205  00000-0  30980-4 0  9995,2 52835  53.2169 274.9379 0001248  91.3278 268.7858 15.08837328100838,6917.889,95.438,540.617,538.89,0.0
52835.0,STARLINK-4080,PAYLOAD,2024-04-13 16:48:34,15.08838205,0.0001171,53.2172,274.0453,78.4882,281.6241,1.1663e-05,-1.02e-06,0.0,0 STARLINK-4080,1 52835U 22062F   24104.70039727 -.00000102  00000-0  11663-4 0  9996,2 52835  53.2172 274.0453 0001171  78.4882 281.6241 15.08838205100866,6917.886,95.438,540.561,538.941,0.0
52835.0,STARLINK-4080,PAYLOAD,2024-04-14 18:14:44,15.08844524,0.0001187,53.2175,269.2948,81.8438,278.2689,0.00011717,1.578e-05,0.0,0 STARLINK-4080,1 52835U 22062F   24105.76023285  .00001578  00000-0  11717-3 0  9991,2 52835  53.2175 269.2948 0001187  81.8438 278.2689 15.08844524101024,6917.867,95.437,540.553,538.91,0.0
52835.0,STARLINK-4080,PAYLOAD,2024-04-15 19:40:54,15.08845729,0.0001242,53.2175,264.5325,74.7344,285.3785,0.00013498,1.861e-05,0.0,0 STARLINK-4080,1 52835U 22062F   24106.82007101  .00001861  00000-0  13498-3 0  9991,2 52835  53.2175 264.5325 0001242  74.7344 285.3785 15.08845729101181,6917.863,95.437,540.587,538.869,0.0
52835.0,STARLINK-4080,PAYLOAD,2024-04-16 14:45:32,15.08844202,7.79e-05,53.217,260.9594,86.5994,273.5087,-9.5942e-06,-4.4e-06,0.0,0 STARLINK-4080,1 52835U 22062F   24107.61495422 -.00000440  00000-0 -95942-5 0  9996,2 52835  53.2170 260.9594 0000779  86.5994 273.5087 15.08844202101303,6917.868,95.437,540.271,539.194,0.0
52835.0,STARLINK-4080,PAYLOAD,2024-04-16 17:56:16,15.08863891,0.0001052,53.2169,260.3685,84.0079,276.1033,0.00020433,2.968e-05,0.0,0 STARLINK-4080,1 52835U 22062F   24107.74741704  .00002968  00000-0  20433-3 0  9993,2 52835  53.2169 260.3685 0001052  84.0079 276.1033 15.08863891101325,6917.807,95.436,540.4,538.945,0.0
52835.0,STARLINK-4080,PAYLOAD,2024-04-17 09:50:10,15.0883155,3.98e-05,53.2174,257.3913,130.0849,230.0178,-7.0739e-05,-1.413e-05,0.0,0 STARLINK-4080,1 52835U 22062F   24108.40984224 -.00001413  00000-0 -70739-4 0  9994,2 52835  53.2174 257.3913 0000398 130.0849 230.0178 15.08831550101427,6917.906,95.438,540.047,539.496,0.0
52835.0,STARLINK-4080,PAYLOAD,2024-04-17 14:36:19,15.08835784,0.0001123,53.2167,256.4997,103.7763,256.3354,-4.93e-05,-1.072e-05,0.0,0 STARLINK-4080,1 52835U 22062F   24108.60856131 -.00001072  00000-0 -49300-4 0  9992,2 52835  53.2167 256.4997 0001123 103.7763 256.3354 15.08835784101453,6917.893,95.438,540.535,538.981,0.0
52835.0,STARLINK-4080,PAYLOAD,2024-04-17 16:11:43,15.08828902,0.0001693,53.2171,256.208,60.9655,299.1506,4.2178e-05,3.83e-06,0.0,0 STARLINK-4080,1 52835U 22062F   24108.67480706  .00000383  00000-0  42178-4 0  9998,2 52835  53.2171 256.2080 0001693  60.9655 299.1506 15.08828902101464,6917.914,95.438,540.951,538.608,0.0
52835.0,STARLINK-4080,PAYLOAD,2024-04-18 12:51:43,15.08840477,0.0001372,53.2167,252.3418,80.138,279.9767,0.0001613,2.28e-05,0.0,0 STARLINK-4080,1 52835U 22062F   24109.53592312  .00002280  00000-0  16130-3 0  9997,2 52835  53.2167 252.3418 0001372  80.1380 279.9767 15.08840477101594,6917.879,95.438,540.693,538.795,0.0
52835.0,STARLINK-4080,PAYLOAD,2024-04-18 14:27:06,15.0884396,0.0001598,53.2174,252.0456,67.051,293.0651,0.000218,3.184e-05,0.0,0 STARLINK-4080,1 52835U 22062F   24109.60216276  .00003184  00000-0  21800-3 0  9991,2 52835  53.2174 252.0456 0001598  67.0510 293.0651 15.08843960101601,6917.868,95.437,540.839,538.628,0.0
